[{"OBJECT_NAME":"ANSER LEADER-S","OBJECT_ID":"2025-009AM","EPOCH":"2026-03-09T17:26:35.310912","MEAN_MOTION":15.37938842,"ECCENTRICITY":0.00014346,"INCLINATION":97.4062,"RA_OF_ASC_NODE":153.827,"ARG_OF_PERICENTER":298.2423,"MEAN_ANOMALY":61.8677,"EPHEMERIS_TYPE":0,"CLASSIFICATION_TYPE":"U","NORAD_CAT_ID":62644,"ELEMENT_SET_NO":999,"REV_AT_EPOCH":6387,"BSTAR":0.00079384372,"MEAN_MOTION_DOT":0.00029611,"MEAN_MOTION_DDOT":0},{"OBJECT_NAME":"STARLINK-32955","OBJECT_ID":"2025-039P","EPOCH":"2026-03-09T22:00:01.999584","MEAN_MOTION":15.35643396,"ECCENTRICITY":0.00092359,"INCLINATION":43.0013,"RA_OF_ASC_NODE":10.1549,"ARG_OF_PERICENTER":201.6454,"MEAN_ANOMALY":283.0913,"EPHEMERIS_TYPE":0,"CLASSIFICATION_TYPE":"U","NORAD_CAT_ID":63117,"ELEMENT_SET_NO":999,"REV_AT_EPOCH":575,"BSTAR":0.0033239594,"MEAN_MOTION_DOT":0.00119453,"MEAN_MOTION_DDOT":0}]
